NORAD_CAT_ID,OBJECT_NAME,OBJECT_TYPE,EPOCH,MEAN_MOTION,ECCENTRICITY,INCLINATION,RA_OF_ASC_NODE,ARG_OF_PERICENTER,MEAN_ANOMALY,BSTAR,MEAN_MOTION_DOT,MEAN_MOTION_DDOT,TLE_LINE0,TLE_LINE1,TLE_LINE2,SEMIMAJOR_AXIS,PERIOD,APOGEE,PERIGEE,DECAYED
55402.0,STARLINK-5071,PAYLOAD,2023-03-11 20:48:58,15.69946626,0.0003341,69.9982,339.535,256.477,103.6054,0.00012825,0.0001525,0.0,0 STARLINK-5071,1 55402U 23014M   23070.86734542  .00015250  00000-0  12825-3 0  9991,2 55402  69.9982 339.5350 0003341 256.4770 103.6054 15.69946626  6358,6737.187,91.723,361.303,356.801,0.0
55402.0,STARLINK-5071,PAYLOAD,2023-03-12 04:27:44,15.69946642,0.00037,69.9988,338.6386,273.8789,86.1984,0.00021594,0.00025858,0.0,0 STARLINK-5071,1 55402U 23014M   23071.18592906  .00025858  00000-0  21594-3 0  9991,2 55402  69.9988 338.6386 0003700 273.8789  86.1984 15.69946642  6406,6737.187,91.723,361.544,356.559,0.0
55402.0,STARLINK-5071,PAYLOAD,2023-03-12 18:13:30,15.69935354,0.0002351,69.9988,337.0271,265.4396,94.6531,0.00011482,0.0001362,0.0,0 STARLINK-5071,1 55402U 23014M   23071.75938188  .00013620  00000-0  11482-3 0  9999,2 55402  69.9988 337.0271 0002351 265.4396  94.6531 15.69935354  6493,6737.219,91.724,360.668,357.5,0.0
55402.0,STARLINK-5071,PAYLOAD,2023-03-13 01:52:15,15.69933101,0.0002967,69.9983,336.1319,254.1383,105.9486,2.1354e-05,2.357e-05,0.0,0 STARLINK-5071,1 55402U 23014M   23072.07796183  .00002357  00000-0  21354-4 0  9997,2 55402  69.9983 336.1319 0002967 254.1383 105.9486 15.69933101  6544,6737.225,91.724,361.089,357.091,0.0
55402.0,STARLINK-5071,PAYLOAD,2023-03-14 02:20:17,15.69954692,0.0003021,69.9983,333.2655,304.5616,55.5294,9.2063e-05,0.00010885,0.0,0 STARLINK-5071,1 55402U 23014M   23073.09742655  .00010885  00000-0  92063-4 0  9995,2 55402  69.9983 333.2655 0003021 304.5616  55.5294 15.69954692  6709,6737.164,91.722,361.064,356.993,0.0
55402.0,STARLINK-5071,PAYLOAD,2023-03-14 20:41:19,15.69911557,0.0002637,69.9983,331.1135,283.6361,76.4541,-1.7164e-05,-2.274e-05,0.0,0 STARLINK-5071,1 55402U 23014M   23073.86203353 -.00002274  00000-0 -17164-4 0  9991,2 55402  69.9983 331.1135 0002637 283.6361  76.4541 15.69911557  7762,6737.287,91.725,360.929,357.375,0.0
55402.0,STARLINK-5071,PAYLOAD,2023-03-15 02:48:20,15.69933982,0.0002828,69.9978,330.3969,287.5727,72.5159,4.2129e-05,4.858e-05,0.0,0 STARLINK-5071,1 55402U 23014M   23074.11689918  .00004858  00000-0  42129-4 0  9992,2 55402  69.9978 330.3969 0002828 287.5727  72.5159 15.69933982  6861,6737.223,91.724,360.993,357.183,0.0
55402.0,STARLINK-5071,PAYLOAD,2023-03-15 16:34:05,15.69925844,0.0003015,70.0007,328.7818,280.6444,79.4412,-3.0121e-05,-3.833e-05,0.0,0 STARLINK-5071,1 55402U 23014M   23074.69034645 -.00003833  00000-0 -30121-4 0  9999,2 55402  70.0007 328.7818 0003015 280.6444  79.4412 15.69925844  6956,6737.246,91.724,361.142,357.08,0.0
55402.0,STARLINK-5071,PAYLOAD,2023-03-15 21:09:21,15.69921202,0.0002538,70.0034,328.238,276.9109,83.1798,-3.8733e-05,-4.865e-05,0.0,0 STARLINK-5071,1 55402U 23014M   23074.88149620 -.00004865  00000-0 -38733-4 0  9993,2 55402  70.0034 328.2380 0002538 276.9109  83.1798 15.69921202  7921,6737.259,91.724,360.834,357.415,0.0
55402.0,STARLINK-5071,PAYLOAD,2023-03-16 03:16:22,15.69913922,0.0003017,69.9993,327.5296,286.6565,73.43,-5.0316e-05,-6.255e-05,0.0,0 STARLINK-5071,1 55402U 23014M   23075.13637038 -.00006255  00000-0 -50316-4 0  9993,2 55402  69.9993 327.5296 0003017 286.6565  73.4300 15.69913922  7029,6737.28,91.725,361.178,357.113,0.0
55402.0,STARLINK-5071,PAYLOAD,2023-03-16 20:05:39,15.69921241,0.0003392,69.9971,325.5583,288.1328,71.9498,-7.2867e-06,-1.089e-05,0.0,0 STARLINK-5071,1 55402U 23014M   23075.83725865 -.00001089  00000-0 -72867-5 0  9992,2 55402  69.9971 325.5583 0003392 288.1328  71.9498 15.69921241  8072,6737.259,91.724,361.41,356.839,0.0
55402.0,STARLINK-5071,PAYLOAD,2023-03-17 02:12:38,15.69930853,0.0003224,69.9981,324.8409,271.8493,88.2334,1.5642e-05,1.669e-05,0.0,0 STARLINK-5071,1 55402U 23014M   23076.09211722  .00001669  00000-0  15642-4 0  9992,2 55402  69.9981 324.8409 0003224 271.8493  88.2334 15.69930853  7177,6737.232,91.724,361.269,356.925,0.0
55402.0,STARLINK-5071,PAYLOAD,2023-03-17 09:51:25,15.69916146,0.0003616,69.999,323.945,264.0959,95.9824,7.1776e-06,6.5e-06,0.0,0 STARLINK-5071,1 55402U 23014M   23076.41070770  .00000650  00000-0  71776-5 0  9994,2 55402  69.9990 323.9450 0003616 264.0959  95.9824 15.69916146  7223,6737.274,91.725,361.575,356.703,0.0
55402.0,STARLINK-5071,PAYLOAD,2023-03-18 04:12:26,15.69923639,0.0003626,69.9976,321.7981,263.9174,96.1609,-1.7712e-05,-2.342e-05,0.0,0 STARLINK-5071,1 55402U 23014M   23077.17530344 -.00002342  00000-0 -17712-4 0  9997,2 55402  69.9976 321.7981 0003626 263.9174  96.1609 15.69923639  7342,6737.252,91.724,361.56,356.675,0.0
55402.0,STARLINK-5071,PAYLOAD,2023-03-18 22:33:27,15.69922934,0.0003614,69.9983,319.6481,266.9491,93.1291,1.4392e-05,1.518e-05,0.0,0 STARLINK-5071,1 55402U 23014M   23077.93990670  .00001518  00000-0  14392-4 0  9996,2 55402  69.9983 319.6481 0003614 266.9491  93.1291 15.69922934  8402,6737.254,91.724,361.554,356.685,0.0
55402.0,STARLINK-5071,PAYLOAD,2023-03-19 01:36:57,15.69940385,0.0003635,69.9982,319.289,268.8013,91.2766,4.6787e-05,5.42e-05,0.0,0 STARLINK-5071,1 55402U 23014M   23078.06733263  .00005420  00000-0  46787-4 0  9993,2 55402  69.9982 319.2890 0003635 268.8013  91.2766 15.69940385  7488,6737.205,91.723,361.519,356.621,0.0
55402.0,STARLINK-5071,PAYLOAD,2023-03-19 09:15:42,15.69939964,0.0003541,69.9981,318.3933,267.4395,92.6395,4.5564e-05,5.273e-05,0.0,0 STARLINK-5071,1 55402U 23014M   23078.38591386  .00005273  00000-0  45564-4 0  9994,2 55402  69.9981 318.3933 0003541 267.4395  92.6395 15.69939964  8473,6737.206,91.723,361.456,356.685,0.0
55402.0,STARLINK-5071,PAYLOAD,2023-03-19 18:26:14,15.69915064,0.0003447,69.9983,317.3185,262.1877,97.8928,-2.8086e-05,-3.587e-05,0.0,0 STARLINK-5071,1 55402U 23014M   23078.76822162 -.00003587  00000-0 -28086-4 0  9993,2 55402  69.9983 317.3185 0003447 262.1877  97.8928 15.69915064  7591,6737.277,91.725,361.464,356.82,0.0
55402.0,STARLINK-5071,PAYLOAD,2023-03-20 03:36:44,15.69921112,0.0003451,69.998,316.2433,263.7176,96.3627,-1.8007e-05,-2.377e-05,0.0,0 STARLINK-5071,1 55402U 23014M   23079.15052022 -.00002377  00000-0 -18007-4 0  9995,2 55402  69.9980 316.2433 0003451 263.7176  96.3627 15.69921112  7654,6737.26,91.724,361.45,356.8,0.0
55402.0,STARLINK-5071,PAYLOAD,2023-03-20 18:54:16,15.69925633,0.00038,69.9972,314.451,260.0589,100.0178,5.5656e-06,4.56e-06,0.0,0 STARLINK-5071,1 55402U 23014M   23079.78768816  .00000456  00000-0  55656-5 0  9995,2 55402  69.9972 314.4510 0003800 260.0589 100.0178 15.69925633  8698,6737.247,91.724,361.672,356.552,0.0
55402.0,STARLINK-5071,PAYLOAD,2023-03-21 01:01:16,15.69935095,0.0003216,69.9989,313.7369,251.812,108.2726,3.5972e-05,4.117e-05,0.0,0 STARLINK-5071,1 55402U 23014M   23080.04255208  .00004117  00000-0  35972-4 0  9998,2 55402  69.9989 313.7369 0003216 251.8120 108.2726 15.69935095  7792,6737.22,91.724,361.251,356.918,0.0
55402.0,STARLINK-5071,PAYLOAD,2023-03-22 03:01:04,15.69922545,0.0002731,69.9975,310.6891,280.0273,80.0614,2.1076e-05,2.322e-05,0.0,0 STARLINK-5071,1 55402U 23014M   23081.12574433  .00002322  00000-0  21076-4 0  9998,2 55402  69.9975 310.6891 0002731 280.0273  80.0614 15.69922545  7965,6737.256,91.724,360.961,357.281,0.0
55402.0,STARLINK-5071,PAYLOAD,2023-03-22 16:46:49,15.69934332,0.0003696,69.9966,309.0754,266.6132,93.4641,2.8422e-05,3.207e-05,0.0,0 STARLINK-5071,1 55402U 23014M   23081.69918534  .00003207  00000-0  28422-4 0  9999,2 55402  69.9966 309.0754 0003696 266.6132  93.4641 15.69934332  8056,6737.222,91.724,361.577,356.597,0.0
55402.0,STARLINK-5071,PAYLOAD,2023-03-23 00:25:35,15.69920923,0.000379,69.9968,308.179,263.1046,96.9718,8.226e-05,9.689e-05,0.0,0 STARLINK-5071,1 55402U 23014M   23082.01777554  .00009689  00000-0  82260-4 0  9991,2 55402  69.9968 308.1790 0003790 263.1046  96.9718 15.69920923  8109,6737.26,91.724,361.679,356.572,0.0
55402.0,STARLINK-5071,PAYLOAD,2023-03-23 17:14:52,15.69918029,0.0002686,69.9993,306.2089,276.8288,83.2602,7.3894e-06,6.76e-06,0.0,0 STARLINK-5071,1 55402U 23014M   23082.71866238  .00000676  00000-0  73894-5 0  9997,2 55402  69.9993 306.2089 0002686 276.8288  83.2602 15.69918029  8216,6737.269,91.725,360.943,357.324,0.0
55402.0,STARLINK-5071,PAYLOAD,2023-03-24 02:25:22,15.69937515,0.0003113,69.9977,305.1306,284.4162,75.6688,6.091e-05,7.121e-05,0.0,0 STARLINK-5071,1 55402U 23014M   23083.10095980  .00007121  00000-0  60910-4 0  9995,2 55402  69.9977 305.1306 0003113 284.4162  75.6688 15.69937515  8276,6737.213,91.723,361.175,356.98,0.0
55402.0,STARLINK-5071,PAYLOAD,2023-03-24 16:11:09,15.69930442,0.0003253,69.9974,303.5201,280.8709,79.212,3.7384e-05,4.286e-05,0.0,0 STARLINK-5071,1 55402U 23014M   23083.67441008  .00004286  00000-0  37384-4 0  9991,2 55402  69.9974 303.5201 0003253 280.8709  79.2120 15.69930442  8364,6737.233,91.724,361.29,356.906,0.0
55402.0,STARLINK-5071,PAYLOAD,2023-03-24 22:18:09,15.69920883,0.0003746,69.9976,302.8064,266.5824,93.4943,5.2552e-06,4.19e-06,0.0,0 STARLINK-5071,1 55402U 23014M   23083.92927802  .00000419  00000-0  52552-5 0  9999,2 55402  69.9976 302.8064 0003746 266.5824  93.4943 15.69920883  9349,6737.26,91.724,361.649,356.602,0.0
55402.0,STARLINK-5071,PAYLOAD,2023-03-25 02:53:25,15.69918426,0.0003687,69.9976,302.2694,264.9448,95.1327,-1.2678e-06,-3.65e-06,0.0,0 STARLINK-5071,1 55402U 23014M   23084.12043039 -.00000365  00000-0 -12678-5 0  9990,2 55402  69.9976 302.2694 0003687 264.9448  95.1327 15.69918426  8434,6737.267,91.725,361.616,356.648,0.0
55402.0,STARLINK-5071,PAYLOAD,2023-03-25 21:14:26,15.69928459,0.0003338,69.9988,300.1193,263.5895,96.492,1.5605e-05,1.664e-05,0.0,0 STARLINK-5071,1 55402U 23014M   23084.88502624  .00001664  00000-0  15605-4 0  9996,2 55402  69.9988 300.1193 0003338 263.5895  96.4920 15.69928459  8555,6737.239,91.724,361.353,356.855,0.0
